IRIDIUM 921             
1 24873U 97034E   24189.26712020  .00027658  00000+0  67329-3 0  9998
2 24873  86.3808 278.1619 0005519 155.8441 204.3073 15.40790073478274
IRIDIUM 26              
1 24903U 97043A   24189.25215186  .00000467  00000+0  15262-3 0  9990
2 24903  86.3949 255.3352 0002349  98.9872 261.1591 14.36425681407214
IRIDIUM 22              
1 24907U 97043E   24189.25363054  .00000465  00000+0  15549-3 0  9998
2 24907  86.3952 258.5882 0002232  93.7283 266.4169 14.35313571407284
DUMMY MASS 1            
1 24925U 97048A   24189.79531600  .00000641  00000+0  69693-4 0  9992
2 24925  86.3350 294.4661 0004576 295.5008  64.5743 14.86273874454206
DUMMY MASS 2            
1 24926U 97048B   24189.83529757  .00000641  00000+0  70110-4 0  9994
2 24926  86.3350 295.9946 0005608 309.5555  50.5173 14.86031689453992
IRIDIUM 29              
1 24944U 97051A   24189.31993522  .00000505  00000+0  16804-3 0  9994
2 24944  86.3956 288.4631 0001993  90.7511 269.3914 14.35763321403779
IRIDIUM 33              
1 24946U 97051C   24189.78419867  .00000420  00000+0  14213-3 0  9990
2 24946  86.3871 287.5185 0009895 116.5908 243.6303 14.34410002403374
IRIDIUM 28              
1 24948U 97051E   24189.79801349  .00000563  00000+0  18447-3 0  9994
2 24948  86.3960 285.9736 0002550 100.9872 259.1613 14.36718813404456
